STARLINK-11472 [DTC]    
1 62067U 24217L   25047.63067786  .00004025  00000+0  38085-4 0  9996
2 62067  53.1574 174.7549 0001523  96.3781 263.7411 15.69700378 14476
STARLINK-11467 [DTC]    
1 62068U 24217M   25047.59143745  .00000952  00000+0  12717-4 0  9991
2 62068  53.1572 174.4972 0001391  90.6135 269.5042 15.69707322 14521
STARLINK-11460 [DTC]    
1 62069U 24217N   25047.62577523  .00000443  00000+0  85155-5 0  9993
2 62069  53.1579 174.7225 0001332  72.3311 287.7853 15.69706679 14471
STARLINK-32604          
1 62070U 24217P   25048.35722149 -.00003351  00000+0 -73867-4 0  9991
2 62070  53.1597 186.6771 0001402  98.3463 261.7701 15.39601116 14386
STARLINK-32553          
1 62071U 24217Q   25047.66171124  .00001029  00000+0  35689-4 0  9994
2 62071  53.1590 190.1627 0000728  70.4963 289.6121 15.39620296 14325
STARLINK-32603          
1 62072U 24217R   25047.68881675 -.00000132  00000+0  66914-5 0  9997
2 62072  53.1597 189.6155 0001247  86.7496 273.3651 15.39613053 14332
STARLINK-32444          
1 62073U 24217S   25048.58444973  .00001608  00000+0  50174-4 0  9992
2 62073  53.1592 185.9826 0001142  80.3785 279.7349 15.39622343 14412
STARLINK-32619          
1 62074U 24217T   25048.41215681  .00001567  00000+0  49135-4 0  9996
2 62074  53.1590 186.3095 0001492  81.4119 278.7054 15.39629943 14397
STARLINK-32580          
1 62075U 24217U   25048.10683091 -.00000110  00000+0  72253-5 0  9999
2 62075  53.1609 187.9599 0001291  91.0584 269.0569 15.39618435 14348
STARLINK-32617          
1 62076U 24217V   25048.11147425  .00001683  00000+0  52059-4 0  9993
2 62076  53.1585 187.9915 0001198  83.7257 276.3884 15.39619941 14349
STARLINK-11384 [DTC]    
1 62088U 24220A   25048.46914023 -.00009125  00000+0 -67587-4 0  9997
2 62088  43.0037 205.4442 0001435 250.6708 109.4005 15.70877586 14463
STARLINK-11379 [DTC]    
1 62089U 24220B   25048.46383748  .00009618  00000+0  78538-4 0  9995
2 62089  43.0012 205.4021 0001485 254.5439 105.5265 15.70787011 14366
STARLINK-11387 [DTC]    
1 62090U 24220C   25048.45851890  .00001268  00000+0  13384-4 0  9995
2 62090  43.0016 205.3584 0002080 265.0784  94.9846 15.70831928 14461
STARLINK-11389 [DTC]    
1 62091U 24220D   25048.13529613  .00000514  00000+0  75072-5 0  9992
2 62091  43.0016 207.2346 0001709 276.6717  83.3956 15.70832336 14312
STARLINK-11388 [DTC]    
1 62092U 24220E   25048.44790082  .00002413  00000+0  22311-4 0  9994
2 62092  43.0021 205.2755 0001835 286.9313  73.1353 15.70826934 14367
STARLINK-11345 [DTC]    
1 62093U 24220F   25048.44259265 -.00002259  00000+0 -14112-4 0  9998
2 62093  42.9985 205.2320 0001463 287.2582  72.8126 15.70847267 14368
STARLINK-11381 [DTC]    
1 62094U 24220G   25048.50086757  .00001527  00000+0  15410-4 0  9997
2 62094  43.0021 204.8073 0002334 285.2720  74.7890 15.70829098 14374
STARLINK-11369 [DTC]    
1 62095U 24220H   25047.73256430 -.00000098  00000+0  27319-5 0  9994
2 62095  43.0007 209.3614 0001539 259.9916 100.0778 15.70824935 14352
STARLINK-11303 [DTC]    
1 62096U 24220J   25048.42669639 -.00002291  00000+0 -14381-4 0  9993
2 62096  43.0004 205.1044 0001943 268.9615  91.1030 15.70802987 14462
STARLINK-11367 [DTC]    
1 62097U 24220K   25048.42132136 -.00001674  00000+0 -95371-5 0  9994
2 62097  42.9907 205.0579 0000620 317.7167  42.3652 15.70901911 14466
STARLINK-11386 [DTC]    
1 62098U 24220L   25048.47962235 -.00003566  00000+0 -24292-4 0  9996
2 62098  42.9924 204.6304 0000249 231.3488 128.7357 15.70866732 14373
STARLINK-11380 [DTC]    
1 62099U 24220M   25048.15640536  .00002904  00000+0  26144-4 0  9990
2 62099  43.0024 206.5134 0002436 286.8767  73.1833 15.70820102 14322
