OBJECT_NAME,OBJECT_ID,EPOCH,MEAN_MOTION,ECCENTRICITY,INCLINATION,RA_OF_ASC_NODE,ARG_OF_PERICENTER,MEAN_ANOMALY,EPHEMERIS_TYPE,CLASSIFICATION_TYPE,NORAD_CAT_ID,ELEMENT_SET_NO,REV_AT_EPOCH,BSTAR,MEAN_MOTION_DOT,MEAN_MOTION_DDOT
STARLINK-11472 [DTC],2024-217L,2025-02-16T15:08:10.567104,15.69700378,.0001523,53.1574,174.7549,96.3781,263.7411,0,U,62067,999,1447,.38085E-4,.4025E-4,0
STARLINK-11467 [DTC],2024-217M,2025-02-16T14:11:40.195680,15.69707322,.0001391,53.1572,174.4972,90.6135,269.5042,0,U,62068,999,1452,.12717E-4,.952E-5,0
STARLINK-11460 [DTC],2024-217N,2025-02-16T15:01:06.979872,15.69706679,.0001332,53.1579,174.7225,72.3311,287.7853,0,U,62069,999,1447,.85155E-5,.443E-5,0
STARLINK-32604,2024-217P,2025-02-17T08:34:23.936736,15.39601116,.0001402,53.1597,186.6771,98.3463,261.7701,0,U,62070,999,1438,-.73867E-4,-.3351E-4,0
STARLINK-32553,2024-217Q,2025-02-16T15:52:51.851136,15.39620296,.0000728,53.1590,190.1627,70.4963,289.6121,0,U,62071,999,1432,.35689E-4,.1029E-4,0
STARLINK-32603,2024-217R,2025-02-16T16:31:53.767200,15.39613053,.0001247,53.1597,189.6155,86.7496,273.3651,0,U,62072,999,1433,.66914E-5,-.132E-5,0
STARLINK-32444,2024-217S,2025-02-17T14:01:36.456672,15.39622343,.0001142,53.1592,185.9826,80.3785,279.7349,0,U,62073,999,1441,.50174E-4,.1608E-4,0
STARLINK-32619,2024-217T,2025-02-17T09:53:30.348384,15.39629943,.0001492,53.1590,186.3095,81.4119,278.7054,0,U,62074,999,1439,.49135E-4,.1567E-4,0
STARLINK-32580,2024-217U,2025-02-17T02:33:50.190624,15.39618435,.0001291,53.1609,187.9599,91.0584,269.0569,0,U,62075,999,1434,.72253E-5,-.11E-5,0
STARLINK-32617,2024-217V,2025-02-17T02:40:31.375200,15.39619941,.0001198,53.1585,187.9915,83.7257,276.3884,0,U,62076,999,1434,.52059E-4,.1683E-4,0
STARLINK-11384 [DTC],2024-220A,2025-02-17T11:15:33.715872,15.70877586,.0001435,43.0037,205.4442,250.6708,109.4005,0,U,62088,999,1446,-.67587E-4,-.9125E-4,0
STARLINK-11379 [DTC],2024-220B,2025-02-17T11:07:55.558272,15.70787011,.0001485,43.0012,205.4021,254.5439,105.5265,0,U,62089,999,1436,.78538E-4,.9618E-4,0
STARLINK-11387 [DTC],2024-220C,2025-02-17T11:00:16.032960,15.70831928,.000208,43.0016,205.3584,265.0784,94.9846,0,U,62090,999,1446,.13384E-4,.1268E-4,0
STARLINK-11389 [DTC],2024-220D,2025-02-17T03:14:49.585632,15.70832336,.0001709,43.0016,207.2346,276.6717,83.3956,0,U,62091,999,1431,.75072E-5,.514E-5,0
STARLINK-11388 [DTC],2024-220E,2025-02-17T10:44:58.630848,15.70826934,.0001835,43.0021,205.2755,286.9313,73.1353,0,U,62092,999,1436,.22311E-4,.2413E-4,0
STARLINK-11345 [DTC],2024-220F,2025-02-17T10:37:20.004960,15.70847267,.0001463,42.9985,205.2320,287.2582,72.8126,0,U,62093,999,1436,-.14112E-4,-.2259E-4,0
STARLINK-11381 [DTC],2024-220G,2025-02-17T12:01:14.958048,15.70829098,.0002334,43.0021,204.8073,285.2720,74.7890,0,U,62094,999,1437,.1541E-4,.1527E-4,0
STARLINK-11369 [DTC],2024-220H,2025-02-16T17:34:53.555520,15.70824935,.0001539,43.0007,209.3614,259.9916,100.0778,0,U,62095,999,1435,.27319E-5,-.98E-6,0
STARLINK-11303 [DTC],2024-220J,2025-02-17T10:14:26.568096,15.70802987,.0001943,43.0004,205.1044,268.9615,91.1030,0,U,62096,999,1446,-.14381E-4,-.2291E-4,0
STARLINK-11367 [DTC],2024-220K,2025-02-17T10:06:42.165504,15.70901911,.000062,42.9907,205.0579,317.7167,42.3652,0,U,62097,999,1446,-.95371E-5,-.1674E-4,0
STARLINK-11386 [DTC],2024-220L,2025-02-17T11:30:39.371040,15.70866732,.0000249,42.9924,204.6304,231.3488,128.7357,0,U,62098,999,1437,-.24292E-4,-.3566E-4,0
STARLINK-11380 [DTC],2024-220M,2025-02-17T03:45:13.423104,15.70820102,.0002436,43.0024,206.5134,286.8767,73.1833,0,U,62099,999,1432,.26144E-4,.2904E-4,0
